[{"OBJECT_NAME":"STARLINK-35207","OBJECT_ID":"2025-198J","EPOCH":"2026-03-09T20:32:12.294240","MEAN_MOTION":15.30172373,"ECCENTRICITY":9.585e-5,"INCLINATION":53.1567,"RA_OF_ASC_NODE":270.3556,"ARG_OF_PERICENTER":100.6259,"MEAN_ANOMALY":259.4849,"EPHEMERIS_TYPE":0,"CLASSIFICATION_TYPE":"U","NORAD_CAT_ID":65500,"ELEMENT_SET_NO":999,"REV_AT_EPOCH":2864,"BSTAR":0.00099926712,"MEAN_MOTION_DOT":0.00029328,"MEAN_MOTION_DDOT":0},{"OBJECT_NAME":"OBJECT BC","OBJECT_ID":"2025-313BC","EPOCH":"2026-03-09T04:33:08.504064","MEAN_MOTION":15.29126358,"ECCENTRICITY":0.00084789,"INCLINATION":97.3985,"RA_OF_ASC_NODE":144.811,"ARG_OF_PERICENTER":328.9209,"MEAN_ANOMALY":31.1528,"EPHEMERIS_TYPE":0,"CLASSIFICATION_TYPE":"U","NORAD_CAT_ID":67298,"ELEMENT_SET_NO":999,"REV_AT_EPOCH":789,"BSTAR":0.0026410397,"MEAN_MOTION_DOT":0.00075331,"MEAN_MOTION_DDOT":0}]
