STARLINK-35207          
1 65500U 25198J   26068.85569785  .00029328  00000+0  99927-3 0  9998
2 65500  53.1567 270.3556 0000958 100.6259 259.4849 15.30172373 28641
2025-313BC              
1 67298U 25313BC  26068.18968176  .00075331  00000+0  26410-2 0  9997
2 67298  97.3985 144.8110 0008478 328.9209  31.1528 15.29126358  7890
